     2.10           G: GLONASS NAV DATA                     RINEX VERSION / TYPE
teqc  2015Jun23                         20220729 01:29:45UTCPGM / RUN BY / DATE
Linux 2.4.21-27.ELsmp|Opteron|gcc -static|Linux x86_64|=+   COMMENT
  2022     7    22   -2.793967723846D-09                    CORR TO SYSTEM TIME
                                                            END OF HEADER
 1 22  7 23 20 45  0.0 1.195445656776D-05 0.000000000000D+00 7.380000000000D+04
    1.862509179688D+04 5.194063186646D-01 1.862645149231D-09 0.000000000000D+00
    1.687843847656D+04 3.378171920776D-01-0.000000000000D+00 1.000000000000D+00
    4.394706542969D+03-3.497841835022D+00-1.862645149231D-09 0.000000000000D+00
 7 22  7 23 20 45  0.0 3.828573971987D-05 0.000000000000D+00 7.380000000000D+04
   -2.838429199219D+03-1.972107887268D+00 1.862645149231D-09 0.000000000000D+00
    1.249449658203D+04-2.294565200806D+00-0.000000000000D+00 5.000000000000D+00
   -2.201003076172D+04-1.050617218018D+00 9.313225746155D-10 0.000000000000D+00
 8 22  7 23 20 45  0.0-6.634742021561D-05-0.000000000000D+00 7.380000000000D+04
    1.034536474609D+04-9.712677001953D-01 2.793967723846D-09 0.000000000000D+00
    2.007009765625D+04-1.310531616211D+00-0.000000000000D+00 6.000000000000D+00
   -1.178620117188D+04-3.071699142456D+00-0.000000000000D+00 0.000000000000D+00
21 22  7 23 20 45  0.0-3.197779878974D-04-2.728484105319D-12 7.380000000000D+04
   -1.019136328125D+04 4.404544830322D-01-9.313225746155D-10 0.000000000000D+00
    2.288077783203D+04-5.606880187988D-01-9.313225746155D-10 4.000000000000D+00
    4.906648925781D+03 3.521338462830D+00 0.000000000000D+00 0.000000000000D+00
10 22  7 23 21 15  0.0-8.446536958218D-05 0.000000000000D+00 7.560000000000D+04
   -2.031736865234D+04-1.164625167847D+00-3.725290298462D-09 0.000000000000D+00
    1.225727734375D+04 5.771560668945D-01-0.000000000000D+00-7.000000000000D+00
    9.451175292969D+03-3.245178222656D+00 1.862645149231D-09 0.000000000000D+00
 1 22  7 23 21 15  0.0 1.195631921291D-05 0.000000000000D+00 7.560000000000D+04
    1.901681542969D+04-1.139259338379D-01 1.862645149231D-09 0.000000000000D+00
    1.689634082031D+04-2.902307510376D-01-0.000000000000D+00 1.000000000000D+00
   -1.989891113281D+03-3.550127983093D+00-1.862645149231D-09 0.000000000000D+00
 7 22  7 23 21 15  0.0 3.828573971987D-05 0.000000000000D+00 7.560000000000D+04
   -6.793053710938D+03-2.389838218689D+00 9.313225746155D-10 0.000000000000D+00
    8.527540039062D+03-2.072360038757D+00-0.000000000000D+00 5.000000000000D+00
   -2.302202392578D+04-6.659507751465D-02 1.862645149231D-09 0.000000000000D+00
 8 22  7 23 21 15  0.0-6.634835153818D-05-0.000000000000D+00 7.560000000000D+04
    7.964977050781D+03-1.672890663147D+00 2.793967723846D-09 0.000000000000D+00
    1.740986767578D+04-1.599559783936D+00-0.000000000000D+00 6.000000000000D+00
   -1.678562890625D+04-2.446873664856D+00 0.000000000000D+00 0.000000000000D+00
21 22  7 23 21 15  0.0-3.197835758328D-04-2.728484105319D-12 7.560000000000D+04
   -9.301088378906D+03 5.054721832275D-01-1.862645149231D-09 0.000000000000D+00
    2.107980126953D+04-1.433199882507D+00-9.313225746155D-10 4.000000000000D+00
    1.097390478516D+04 3.176329612732D+00 0.000000000000D+00 0.000000000000D+00
23 22  7 23 21 15  0.0-4.879385232925D-05-9.094947017729D-13 7.602000000000D+04
    6.789798828125D+03-4.810876846313D-01 2.793967723846D-09 0.000000000000D+00
    1.300273925781D+04 2.822016716003D+00-0.000000000000D+00 3.000000000000D+00
   -2.088304443359D+04 1.601326942444D+00 0.000000000000D+00 0.000000000000D+00
11 22  7 23 21 15  0.0 3.248453140259D-05-9.094947017729D-13 7.626000000000D+04
   -4.472882324219D+03-2.772441864014D+00-2.793967723846D-09 0.000000000000D+00
    1.260239892578D+04 1.073355674744D+00-9.313225746155D-10 0.000000000000D+00
    2.173253125000D+04-1.195374488831D+00-9.313225746155D-10 0.000000000000D+00
10 22  7 23 21 45  0.0-8.446536958218D-05 0.000000000000D+00 7.740000000000D+04
   -2.166099609375D+04-3.309297561646D-01-2.793967723846D-09 0.000000000000D+00
    1.312630175781D+04 3.470039367676D-01-0.000000000000D+00-7.000000000000D+00
    3.321076171875D+03-3.521974563599D+00 1.862645149231D-09 0.000000000000D+00
 1 22  7 23 21 45  0.0 1.195725053549D-05 0.000000000000D+00 7.740000000000D+04
    1.813509130859D+04-8.795118331909D-01 2.793967723846D-09 0.000000000000D+00
    1.595570068359D+04-7.160444259644D-01-9.313225746155D-10 1.000000000000D+00
   -8.220757812500D+03-3.328135490417D+00-9.313225746155D-10 0.000000000000D+00
 8 22  7 23 21 45  0.0-6.635021418333D-05-0.000000000000D+00 7.740000000000D+04
    4.360112304688D+03-2.312777519226D+00 1.862645149231D-09 0.000000000000D+00
    1.447713916016D+04-1.614394187927D+00-9.313225746155D-10 6.000000000000D+00
   -2.048021875000D+04-1.631348609924D+00 9.313225746155D-10 0.000000000000D+00
11 22  7 23 21 45  0.0 3.248266875744D-05-9.094947017729D-13 7.740000000000D+04
   -9.006107421875D+03-2.230110168457D+00-2.793967723846D-09 0.000000000000D+00
    1.474900781250D+04 1.275856971741D+00-0.000000000000D+00 0.000000000000D+00
    1.876937304688D+04-2.075745582581D+00-0.000000000000D+00 0.000000000000D+00
21 22  7 23 21 45  0.0-3.197882324457D-04-2.728484105319D-12 7.740000000000D+04
   -8.520990722656D+03 3.231258392334D-01-2.793967723846D-09 0.000000000000D+00
    1.778267773438D+04-2.203819274902D+00-0.000000000000D+00 4.000000000000D+00
    1.619379589844D+04 2.585891723633D+00-0.000000000000D+00 0.000000000000D+00
23 22  7 23 21 45  0.0-4.879571497440D-05-9.094947017729D-13 7.740000000000D+04
    6.361493164062D+03-1.242160797119D-02 1.862645149231D-09 0.000000000000D+00
    1.771451318359D+04 2.366250991821D+00-9.313225746155D-10 3.000000000000D+00
   -1.723171093750D+04 2.429439544678D+00 0.000000000000D+00 0.000000000000D+00
10 22  7 23 22 15  0.0-8.446443825960D-05 0.000000000000D+00 7.920000000000D+04
   -2.155193652344D+04 4.312276840210D-01-1.862645149231D-09 0.000000000000D+00
    1.336673730469D+04-1.146459579468D-01 0.000000000000D+00-7.000000000000D+00
   -3.064767089844D+03-3.527523994446D+00 2.793967723846D-09 0.000000000000D+00
 1 22  7 23 22 15  0.0 1.195911318064D-05 0.000000000000D+00 7.920000000000D+04
    1.583460693359D+04-1.671434402466D+00 2.793967723846D-09 0.000000000000D+00
    1.446884960938D+04-8.929109573364D-01-9.313225746155D-10 1.000000000000D+00
   -1.381648242188D+04-2.848988533020D+00-0.000000000000D+00 0.000000000000D+00
 8 22  7 23 22 15  0.0-6.635207682848D-05-9.094947017729D-13 7.920000000000D+04
   -2.587714843750D+02-2.783052444458D+00 1.862645149231D-09 0.000000000000D+00
    1.174586474609D+04-1.384248733521D+00-9.313225746155D-10 6.000000000000D+00
   -2.258201171875D+04-6.887121200562D-01 1.862645149231D-09 0.000000000000D+00
11 22  7 23 22 15  0.0 3.248080611229D-05-9.094947017729D-13 7.920000000000D+04
   -1.240671875000D+04-1.530906677246D+00-3.725290298462D-09 0.000000000000D+00
    1.704972607422D+04 1.236811637878D+00 0.000000000000D+00 0.000000000000D+00
    1.435604589844D+04-2.796195983887D+00 9.313225746155D-10 0.000000000000D+00
21 22  7 23 22 15  0.0-3.197938203812D-04-2.728484105319D-12 7.920000000000D+04
   -8.255882812500D+03-5.475711822510D-02-3.725290298462D-09 0.000000000000D+00
    1.327091943359D+04-2.767375946045D+00 0.000000000000D+00 4.000000000000D+00
    2.016276904297D+04 1.795400619507D+00-0.000000000000D+00 0.000000000000D+00
23 22  7 23 22 15  0.0-4.879850894213D-05-9.094947017729D-13 7.920000000000D+04
    6.653120605469D+03 3.039484024048D-01 9.313225746155D-10 0.000000000000D+00
    2.137221240234D+04 1.663390159607D+00-9.313225746155D-10 3.000000000000D+00
   -1.224977099609D+04 3.070183753967D+00 0.000000000000D+00 0.000000000000D+00
12 22  7 23 22 15  0.0 1.945998519659D-05 9.094947017729D-13 8.094000000000D+04
    4.866342285156D+03-2.577652931213D+00-1.862645149231D-09 0.000000000000D+00
    1.000814404297D+04 1.789139747620D+00-0.000000000000D+00-1.000000000000D+00
    2.298409179688D+04-2.324256896973D-01-1.862645149231D-09 0.000000000000D+00
10 22  7 23 22 45  0.0-8.446443825960D-05 0.000000000000D+00 8.100000000000D+04
   -2.021148828125D+04 1.022893905640D+00-9.313225746155D-10 0.000000000000D+00
    1.260979687500D+04-7.481575012207D-01 0.000000000000D+00-7.000000000000D+00
   -9.214602539062D+03-3.261425018311D+00 2.793967723846D-09 0.000000000000D+00
 1 22  7 23 22 45  0.0 1.196004450321D-05 0.000000000000D+00 8.100000000000D+04
    1.217075634766D+04-2.375665664673D+00 1.862645149231D-09 0.000000000000D+00
    1.289304833984D+04-8.182287216187D-01-9.313225746155D-10 1.000000000000D+00
   -1.834466308594D+04-2.149662017822D+00 0.000000000000D+00 0.000000000000D+00
 8 22  7 23 22 45  0.0-6.635300815105D-05-0.000000000000D+00 8.100000000000D+04
   -5.505776367188D+03-2.999450683594D+00 9.313225746155D-10 0.000000000000D+00
    9.599582519531D+03-9.788274765015D-01-9.313225746155D-10 6.000000000000D+00
   -2.292744824219D+04 3.073396682739D-01 1.862645149231D-09 0.000000000000D+00
11 22  7 23 22 45  0.0 3.247894346714D-05-9.094947017729D-13 8.100000000000D+04
   -1.448871142578D+04-7.840557098389D-01-3.725290298462D-09 0.000000000000D+00
    1.904080761719D+04 9.314460754395D-01 0.000000000000D+00 0.000000000000D+00
    8.832885742188D+03-3.300842285156D+00 9.313225746155D-10 0.000000000000D+00
12 22  7 23 22 45  0.0 1.945905387402D-05 9.094947017729D-13 8.100000000000D+04
    5.704521484375D+02-2.161233901978D+00-2.793967723846D-09 0.000000000000D+00
    1.347345458984D+04 2.023538589478D+00 0.000000000000D+00-1.000000000000D+00
    2.168572753906D+04-1.200867652893D+00-9.313225746155D-10 0.000000000000D+00
23 22  7 23 22 45  0.0-4.880037158728D-05-9.094947017729D-13 8.100000000000D+04
    7.320134765625D+03 3.957595825195D-01 0.000000000000D+00 0.000000000000D+00
    2.360926220703D+04 8.055582046509D-01-9.313225746155D-10 3.000000000000D+00
   -6.321592285156D+03 3.473969459534D+00 0.000000000000D+00 0.000000000000D+00
